ONEWEB-0665             
1 55825U 23029AF  25094.49158249 -.00000029  00000+0 -11157-3 0  9993
2 55825  87.9095  16.9666 0002008  70.4522 289.6824 13.14504048102461
ONEWEB-0666             
1 55826U 23029AG  25094.09878307  .00000120  00000+0  26305-3 0  9995
2 55826  87.9335   1.8871 0001733  93.6193 266.5139 13.20768595103870
ONEWEB-0667             
1 55827U 23029AH  25094.47124978  .00000047  00000+0  83244-4 0  9990
2 55827  87.9333   1.7460 0002096  76.4513 283.6853 13.20769611103918
ONEWEB-0669             
1 55828U 23029AJ  25093.78471186 -.00000003  00000+0 -39272-4 0  9996
2 55828  87.9335   1.9179 0002147  99.3484 260.7892 13.20769767103144
ONEWEB-0670             
1 55829U 23029AK  25094.54549210  .00000275  00000+0  70756-3 0  9996
2 55829  87.9097  16.9716 0002306  77.2200 282.9187 13.14505986102495
ONEWEB-0671             
1 55830U 23029AL  25094.53919037 -.00000241  00000+0 -63490-3 0  9997
2 55830  87.9249  32.1647 0002272  77.2298 282.9089 13.19729148101738
ONEWEB-0672             
1 55831U 23029AM  25093.77997262  .00000002  00000+0 -26592-4 0  9996
2 55831  87.9336   1.9042 0001635  88.6613 271.4707 13.20768900103146
ONEWEB-0673             
1 55832U 23029AN  25093.83312024 -.00000412  00000+0 -10617-2 0  9996
2 55832  87.9246  32.2695 0001876  70.9609 289.1727 13.19725856100959
